QIANFAN-60              
1 62790U 25016F   25273.45632892  .00000063  00000+0  77135-4 0  9991
2 62790  88.9732 110.6637 0014892 189.3455 170.7422 13.52524324 37336
QIANFAN-61              
1 62791U 25016G   25283.93199426  .00000057  00000+0  69212-4 0  9997
2 62791  88.9791 109.6983 0015219 158.1536 202.0267 13.50973971 38760
QIANFAN-62              
1 62792U 25016H   25283.93621681  .00000048  00000+0  55642-4 0  9993
2 62792  88.9738 109.6002 0016579 159.0448 201.1387 13.50967888 38758
QIANFAN-63              
1 62793U 25016J   25283.96081454  .00000075  00000+0  98093-4 0  9992
2 62793  88.9745 109.5449 0016495 164.1881 195.9788 13.50970910 38795
QIANFAN-64              
1 62794U 25016K   25283.92789560  .00000056  00000+0  67721-4 0  9995
2 62794  88.9731 109.5309 0014632 156.6115 203.5705 13.50972503 38787
QIANFAN-65              
1 62795U 25016L   25283.99786553  .00000062  00000+0  77726-4 0  9995
2 62795  88.9725 109.5519 0014421 158.0421 202.1351 13.50971507 38770
QIANFAN-66              
1 62796U 25016M   25283.95271103  .00000057  00000+0  69708-4 0  9997
2 62796  88.9748 109.5145 0015648 154.3985 205.7944 13.50966636 38816
QIANFAN-67              
1 62797U 25016N   25283.95668789  .00000068  00000+0  87283-4 0  9998
2 62797  88.9738 109.5458 0015430 161.0073 199.1657 13.50968263 38786
QIANFAN-68              
1 62798U 25016P   25283.94849310  .00000050  00000+0  59023-4 0  9991
2 62798  88.9741 109.5895 0015529 159.3588 200.8194 13.50970579 38763
QIANFAN-69              
1 62799U 25016Q   25283.96497713  .00000050  00000+0  59340-4 0  9992
2 62799  88.9717 109.4707 0016256 160.6171 199.5602 13.50968134 38806
QIANFAN-70              
1 62800U 25016R   25283.98131141  .00000059  00000+0  72683-4 0  9991
2 62800  88.9741 109.5942 0016111 151.1695 209.0350 13.50973179 38761
QIANFAN-71              
1 62801U 25016S   25283.97729222  .00000044  00000+0  49228-4 0  9997
2 62801  88.9732 109.5780 0016072 163.9795 196.1868 13.50971819 38769
QIANFAN-72              
1 62802U 25016T   25274.29087208  .00000084  00000+0  11481-3 0  9997
2 62802  88.9730 110.6012 0018440 200.3911 159.6505 13.49486897 37447
QIANFAN-73              
1 63159U 25046A   25283.94653862  .00000131  00000+0  18440-3 0  9998
2 63159  88.9802 326.5224 0013091 310.0547  49.9455 13.50968638 38937
QIANFAN-74              
1 63160U 25046B   25283.93007828  .00000139  00000+0  19689-3 0  9998
2 63160  88.9802 326.4124 0002212 101.2992 258.8408 13.50970519 38990
QIANFAN-75              
1 63161U 25046C   25283.99176413  .00000080  00000+0  10583-3 0  9991
2 63161  88.9804 326.6387 0014236 312.9282  47.0674 13.50978022 38875
QIANFAN-76              
1 63162U 25046D   25283.98769741 -.00000023  00000+0 -54188-4 0  9992
2 63162  88.9798 326.6200 0011821 314.5695  45.4490 13.50971485 38880
QIANFAN-77              
1 63163U 25046E   25283.97116480  .00000347  00000+0  24365-3 0  9998
2 63163  88.9800 325.1444 0012457 276.7170  83.2589 13.96067709 39696
QIANFAN-78              
1 63164U 25046F   25283.95480573  .00000123  00000+0  17260-3 0  9992
2 63164  88.9803 326.4881 0013249 316.6841  43.3268 13.50970843 38959
QIANFAN-79              
1 63165U 25046G   25283.98348262  .00000139  00000+0  19631-3 0  9995
2 63165  88.9806 326.5902 0012900 314.7297  45.2803 13.50970013 38905
QIANFAN-80              
1 63166U 25046H   25283.92599339  .00000171  00000+0  24608-3 0  9999
2 63166  88.9803 326.3047 0011990 320.4553  39.5722 13.50970497 39057
QIANFAN-81              
1 63167U 25046J   25283.97928207  .00000046  00000+0  52900-4 0  9993
2 63167  88.9803 326.3676 0012729 306.4063  53.5914 13.50985112 39012
QIANFAN-82              
1 63168U 25046K   25283.93831787  .00000161  00000+0  23066-3 0  9994
2 63168  88.9803 326.4154 0011053 316.5716  43.4563 13.50967639 38999
QIANFAN-83              
1 63169U 25046L   25283.95776249  .00000176  00000+0  21224-3 0  9998
2 63169  88.9803 326.3129 0012063 302.9032  57.0964 13.61961759 39056
QIANFAN-84              
1 63170U 25046M   25283.96672510  .00000092  00000+0  12408-3 0  9998
2 63170  88.9803 326.5454 0013926 311.0537  48.9410 13.50985530 38922
QIANFAN-85              
1 63171U 25046N   25283.96302122  .00000161  00000+0  23048-3 0  9997
2 63171  88.9803 326.4178 0011373 315.0294  44.9936 13.50970348 38990
QIANFAN-86              
1 63172U 25046P   25283.97125927  .00000155  00000+0  22151-3 0  9992
2 63172  88.9805 326.2776 0009368 321.3958  38.6522 13.50967435 39077
QIANFAN-87              
1 63173U 25046Q   25282.68330257  .00000145  00000+0  20656-3 0  9991
2 63173  88.9804 326.5243 0010016 319.1660  40.8739 13.50979787 38837
QIANFAN-88              
1 63174U 25046R   25283.51451471  .00000149  00000+0  21299-3 0  9995
2 63174  88.9800 326.3915 0010557 325.4993  34.5472 13.50973338 38972
QIANFAN-89              
1 63175U 25046S   25283.92171951  .00000166  00000+0  23939-3 0  9995
2 63175  88.9803 326.5386 0014601 311.5237  48.4660 13.50968599 38922
QIANFAN-90              
1 63176U 25046T   25283.95046068  .00000127  00000+0  17883-3 0  9997
2 63176  88.9800 326.5080 0011514 310.4266  49.5880 13.50970609 38944
